60387,QIANFAN-9,2024,106.59,-1.0,+,88.98,Active,0,LEO,PRC,China,Unknown,Unknown,Unknown,1 60387U 24140J   25222.62591333  .00000143  00000+0  20251-3 0  9990,2 60387  88.9846 312.1645 0016384 188.9091 171.1772 13.50958802 50573,13.50958802,0.0016384,LEO
60388,QIANFAN-10,2024,106.59,-1.0,+,88.99,Active,0,LEO,PRC,China,Unknown,Unknown,Unknown,1 60388U 24140K   25222.55597212  .00000125  00000+0  17464-3 0  9997,2 60388  88.9854 311.5077 0015663 166.6552 193.5016 13.50960904 50697,13.50960904,0.0015663,LEO
60389,QIANFAN-11,2024,106.59,-1.0,+,88.98,Active,0,LEO,PRC,China,Unknown,Unknown,Unknown,1 60389U 24140L   25222.59295799  .00000132  00000+0  18563-3 0  9996,2 60389  88.9781 312.1829 0014425 187.7103 172.3829 13.50961137 50359,13.50961137,0.0014425,LEO
60390,QIANFAN-12,2024,106.59,-1.0,+,88.98,Active,0,LEO,PRC,China,Unknown,Unknown,Unknown,1 60390U 24140M   25222.61347425  .00000148  00000+0  21061-3 0  9999,2 60390  88.9824 312.1700 0012971 194.9727 165.1041 13.50961028 50482,13.50961028,0.0012971,LEO
60391,QIANFAN-13,2024,106.59,-1.0,+,88.98,Active,0,LEO,PRC,China,Unknown,Unknown,Unknown,1 60391U 24140N   25222.58469033  .00000147  00000+0  20917-3 0  9994,2 60391  88.9837 312.2574 0012688 197.6134 162.4579 13.50960891 50500,13.50960891,0.0012688,LEO
60392,QIANFAN-14,2024,106.59,-1.0,+,88.98,Active,0,LEO,PRC,China,Unknown,Unknown,Unknown,1 60392U 24140P   25222.60932606  .00000150  00000+0  21327-3 0  9999,2 60392  88.9816 312.1791 0016344 199.5770 160.4756 13.50962009 50517,13.50962009,0.0016344,LEO
60393,QIANFAN-15,2024,106.59,-1.0,+,88.98,Active,0,LEO,PRC,China,Unknown,Unknown,Unknown,1 60393U 24140Q   25222.61771164  .00000139  00000+0  19642-3 0  9995,2 60393  88.9839 312.1055 0012686 183.4851 176.6214 13.50958645 50501,13.50958645,0.0012686,LEO
60394,QIANFAN-16,2024,106.59,-1.0,+,88.98,Active,0,LEO,PRC,China,Unknown,Unknown,Unknown,1 60394U 24140R   25222.60532041  .00000137  00000+0  19374-3 0  9994,2 60394  88.9842 312.2229 0014140 202.5455 157.5076 13.50961075 50415,13.50961075,0.001414,LEO
